[{"OBJECT_NAME":"TDRS 3","OBJECT_ID":"1988-091B","EPOCH":"2026-03-04T21:21:26.998848","MEAN_MOTION":1.00260111,"ECCENTRICITY":0.004424,"INCLINATION":12.6802,"RA_OF_ASC_NODE":341.6894,"ARG_OF_PERICENTER":353.1115,"MEAN_ANOMALY":98.6562,"EPHEMERIS_TYPE":0,"CLASSIFICATION_TYPE":"U","NORAD_CAT_ID":19548,"ELEMENT_SET_NO":999,"REV_AT_EPOCH":12434,"BSTAR":0,"MEAN_MOTION_DOT":-3.06e-6,"MEAN_MOTION_DDOT":0},{"OBJECT_NAME":"HST","OBJECT_ID":"1990-037B","EPOCH":"2026-03-05T02:44:22.473600","MEAN_MOTION":15.2939758,"ECCENTRICITY":0.00017647,"INCLINATION":28.4704,"RA_OF_ASC_NODE":71.2102,"ARG_OF_PERICENTER":80.5855,"MEAN_ANOMALY":279.494,"EPHEMERIS_TYPE":0,"CLASSIFICATION_TYPE":"U","NORAD_CAT_ID":20580,"ELEMENT_SET_NO":999,"REV_AT_EPOCH":77261,"BSTAR":0.00032208786,"MEAN_MOTION_DOT":9.685e-5,"MEAN_MOTION_DDOT":0},{"OBJECT_NAME":"TDRS 5","OBJECT_ID":"1991-054B","EPOCH":"2026-03-04T14:02:56.570208","MEAN_MOTION":1.00266567,"ECCENTRICITY":0.0010786,"INCLINATION":14.084,"RA_OF_ASC_NODE":354.5521,"ARG_OF_PERICENTER":277.778,"MEAN_ANOMALY":293.2017,"EPHEMERIS_TYPE":0,"CLASSIFICATION_TYPE":"U","NORAD_CAT_ID":21639,"ELEMENT_SET_NO":999,"REV_AT_EPOCH":12666,"BSTAR":0,"MEAN_MOTION_DOT":7.8e-7,"MEAN_MOTION_DDOT":0},{"OBJECT_NAME":"TDRS 6","OBJECT_ID":"1993-003B","EPOCH":"2026-03-05T05:44:03.583104","MEAN_MOTION":1.00278443,"ECCENTRICITY":0.0005533,"INCLINATION":14.1808,"RA_OF_ASC_NODE":357.8287,"ARG_OF_PERICENTER":200.618,"MEAN_ANOMALY":4.5899,"EPHEMERIS_TYPE":0,"CLASSIFICATION_TYPE":"U","NORAD_CAT_ID":22314,"ELEMENT_SET_NO":999,"REV_AT_EPOCH":12136,"BSTAR":0,"MEAN_MOTION_DOT":-3.0e-6,"MEAN_MOTION_DDOT":0},{"OBJECT_NAME":"TDRS 7","OBJECT_ID":"1995-035B","EPOCH":"2026-03-04T14:54:00.137088","MEAN_MOTION":1.00276443,"ECCENTRICITY":0.0008188,"INCLINATION":13.4204,"RA_OF_ASC_NODE":348.907,"ARG_OF_PERICENTER":47.477,"MEAN_ANOMALY":78.5013,"EPHEMERIS_TYPE":0,"CLASSIFICATION_TYPE":"U","NORAD_CAT_ID":23613,"ELEMENT_SET_NO":999,"REV_AT_EPOCH":11220,"BSTAR":0,"MEAN_MOTION_DOT":-2.45e-6,"MEAN_MOTION_DDOT":0},{"OBJECT_NAME":"ISS (ZARYA)","OBJECT_ID":"1998-067A","EPOCH":"2026-03-05T06:05:40.876512","MEAN_MOTION":15.48454548,"ECCENTRICITY":0.00081607,"INCLINATION":51.6314,"RA_OF_ASC_NODE":94.2866,"ARG_OF_PERICENTER":158.8383,"MEAN_ANOMALY":201.2944,"EPHEMERIS_TYPE":0,"CLASSIFICATION_TYPE":"U","NORAD_CAT_ID":25544,"ELEMENT_SET_NO":999,"REV_AT_EPOCH":55564,"BSTAR":0.00016717327,"MEAN_MOTION_DOT":8.604e-5,"MEAN_MOTION_DDOT":0},{"OBJECT_NAME":"TERRA","OBJECT_ID":"1999-068A","EPOCH":"2026-03-05T06:20:38.879232","MEAN_MOTION":14.61009456,"ECCENTRICITY":0.00024324,"INCLINATION":97.9601,"RA_OF_ASC_NODE":117.8679,"ARG_OF_PERICENTER":161.9987,"MEAN_ANOMALY":262.9617,"EPHEMERIS_TYPE":0,"CLASSIFICATION_TYPE":"U","NORAD_CAT_ID":25994,"ELEMENT_SET_NO":999,"REV_AT_EPOCH":39443,"BSTAR":0.00013890629,"MEAN_MOTION_DOT":6.37e-6,"MEAN_MOTION_DDOT":0},{"OBJECT_NAME":"TDRS 8","OBJECT_ID":"2000-034A","EPOCH":"2026-03-04T22:41:30.144192","MEAN_MOTION":1.00276406,"ECCENTRICITY":0.00061482,"INCLINATION":12.5198,"RA_OF_ASC_NODE":32.191,"ARG_OF_PERICENTER":308.2066,"MEAN_ANOMALY":247.4328,"EPHEMERIS_TYPE":0,"CLASSIFICATION_TYPE":"U","NORAD_CAT_ID":26388,"ELEMENT_SET_NO":999,"REV_AT_EPOCH":9413,"BSTAR":0,"MEAN_MOTION_DOT":-2.01e-6,"MEAN_MOTION_DDOT":0},{"OBJECT_NAME":"TIMED","OBJECT_ID":"2001-055B","EPOCH":"2026-03-05T03:54:00.154656","MEAN_MOTION":14.95005104,"ECCENTRICITY":0.00029931,"INCLINATION":74.066,"RA_OF_ASC_NODE":84.4325,"ARG_OF_PERICENTER":281.0767,"MEAN_ANOMALY":79.0081,"EPHEMERIS_TYPE":0,"CLASSIFICATION_TYPE":"U","NORAD_CAT_ID":26998,"ELEMENT_SET_NO":999,"REV_AT_EPOCH":31527,"BSTAR":0.00016513889,"MEAN_MOTION_DOT":1.767e-5,"MEAN_MOTION_DDOT":0},{"OBJECT_NAME":"AQUA","OBJECT_ID":"2002-022A","EPOCH":"2026-03-05T07:46:32.397312","MEAN_MOTION":14.61964771,"ECCENTRICITY":6.08e-5,"INCLINATION":98.4169,"RA_OF_ASC_NODE":31.6096,"ARG_OF_PERICENTER":62.645,"MEAN_ANOMALY":101.919,"EPHEMERIS_TYPE":0,"CLASSIFICATION_TYPE":"U","NORAD_CAT_ID":27424,"ELEMENT_SET_NO":999,"REV_AT_EPOCH":26809,"BSTAR":0.00031675674,"MEAN_MOTION_DOT":1.538e-5,"MEAN_MOTION_DDOT":0},{"OBJECT_NAME":"SORCE","OBJECT_ID":"2003-004A","EPOCH":"2026-03-05T05:56:28.158432","MEAN_MOTION":15.0305762,"ECCENTRICITY":0.00164147,"INCLINATION":39.9902,"RA_OF_ASC_NODE":134.4199,"ARG_OF_PERICENTER":21.4427,"MEAN_ANOMALY":338.7051,"EPHEMERIS_TYPE":0,"CLASSIFICATION_TYPE":"U","NORAD_CAT_ID":27651,"ELEMENT_SET_NO":999,"REV_AT_EPOCH":25625,"BSTAR":0.00034770209,"MEAN_MOTION_DOT":4.633e-5,"MEAN_MOTION_DDOT":0},{"OBJECT_NAME":"AURA","OBJECT_ID":"2004-026A","EPOCH":"2026-03-05T07:32:34.534176","MEAN_MOTION":14.6113716,"ECCENTRICITY":0.0001026,"INCLINATION":98.3305,"RA_OF_ASC_NODE":19.989,"ARG_OF_PERICENTER":79.9396,"MEAN_ANOMALY":280.192,"EPHEMERIS_TYPE":0,"CLASSIFICATION_TYPE":"U","NORAD_CAT_ID":28376,"ELEMENT_SET_NO":999,"REV_AT_EPOCH":15104,"BSTAR":0.00031958459,"MEAN_MOTION_DOT":1.524e-5,"MEAN_MOTION_DDOT":0},{"OBJECT_NAME":"SWIFT","OBJECT_ID":"2004-047A","EPOCH":"2026-03-04T20:59:02.684832","MEAN_MOTION":15.58805646,"ECCENTRICITY":0.00031786,"INCLINATION":20.5531,"RA_OF_ASC_NODE":263.8342,"ARG_OF_PERICENTER":330.4239,"MEAN_ANOMALY":29.6025,"EPHEMERIS_TYPE":0,"CLASSIFICATION_TYPE":"U","NORAD_CAT_ID":28485,"ELEMENT_SET_NO":999,"REV_AT_EPOCH":17051,"BSTAR":0.0005886945,"MEAN_MOTION_DOT":0.00048516,"MEAN_MOTION_DDOT":0},{"OBJECT_NAME":"THEMIS A","OBJECT_ID":"2007-004A","EPOCH":"2026-03-05T02:54:22.178592","MEAN_MOTION":0.87846874,"ECCENTRICITY":0.84052309,"INCLINATION":6.7471,"RA_OF_ASC_NODE":120.1925,"ARG_OF_PERICENTER":177.4826,"MEAN_ANOMALY":195.7682,"EPHEMERIS_TYPE":0,"CLASSIFICATION_TYPE":"U","NORAD_CAT_ID":30580,"ELEMENT_SET_NO":999,"REV_AT_EPOCH":4036,"BSTAR":-0.0048391981,"MEAN_MOTION_DOT":-1.98e-6,"MEAN_MOTION_DDOT":0},{"OBJECT_NAME":"THEMIS D","OBJECT_ID":"2007-004D","EPOCH":"2026-03-04T18:14:47.884416","MEAN_MOTION":0.87836012,"ECCENTRICITY":0.83584306,"INCLINATION":6.6064,"RA_OF_ASC_NODE":84.7113,"ARG_OF_PERICENTER":215.7397,"MEAN_ANOMALY":68.9811,"EPHEMERIS_TYPE":0,"CLASSIFICATION_TYPE":"U","NORAD_CAT_ID":30797,"ELEMENT_SET_NO":999,"REV_AT_EPOCH":4016,"BSTAR":0,"MEAN_MOTION_DOT":-2.46e-6,"MEAN_MOTION_DDOT":0},{"OBJECT_NAME":"THEMIS E","OBJECT_ID":"2007-004E","EPOCH":"2026-03-05T06:31:23.287584","MEAN_MOTION":0.87837748,"ECCENTRICITY":0.83620644,"INCLINATION":4.1352,"RA_OF_ASC_NODE":99.8579,"ARG_OF_PERICENTER":201.5971,"MEAN_ANOMALY":245.1119,"EPHEMERIS_TYPE":0,"CLASSIFICATION_TYPE":"U","NORAD_CAT_ID":30798,"ELEMENT_SET_NO":999,"REV_AT_EPOCH":6500,"BSTAR":0,"MEAN_MOTION_DOT":-2.56e-6,"MEAN_MOTION_DDOT":0},{"OBJECT_NAME":"FGRST (GLAST)","OBJECT_ID":"2008-029A","EPOCH":"2026-03-05T02:20:36.980736","MEAN_MOTION":15.23287211,"ECCENTRICITY":0.00083485,"INCLINATION":25.5812,"RA_OF_ASC_NODE":206.8968,"ARG_OF_PERICENTER":173.9116,"MEAN_ANOMALY":186.1524,"EPHEMERIS_TYPE":0,"CLASSIFICATION_TYPE":"U","NORAD_CAT_ID":33053,"ELEMENT_SET_NO":999,"REV_AT_EPOCH":97994,"BSTAR":0.00018404111,"MEAN_MOTION_DOT":4.831e-5,"MEAN_MOTION_DDOT":0}]
